OBJECT_NAME,OBJECT_ID,EPOCH,MEAN_MOTION,ECCENTRICITY,INCLINATION,RA_OF_ASC_NODE,ARG_OF_PERICENTER,MEAN_ANOMALY,EPHEMERIS_TYPE,CLASSIFICATION_TYPE,NORAD_CAT_ID,ELEMENT_SET_NO,REV_AT_EPOCH,BSTAR,MEAN_MOTION_DOT,MEAN_MOTION_DDOT
JCSAT-3A,2006-033A,2026-07-10T14:12:51.830784,1.00270222,.00024889,0.0224,308.4736,178.2167,143.0361,0,U,29272,999,4797,0,-.335E-5,0
KOREASAT 5 (MUGUNGWHA 5),2006-034A,2026-07-10T14:08:37.237632,1.00272389,.00016665,1.8424,82.7007,76.7614,94.2604,0,U,29349,999,4155,0,-.35E-5,0
DIRECTV 9S,2006-043A,2026-07-10T15:01:19.156224,1.00270968,.00050147,2.4783,80.6201,31.8882,300.1670,0,U,29494,999,5161,0,-.106E-5,0
OPTUS D1,2006-043B,2026-07-10T13:47:38.685984,1.00270728,.00033453,3.0920,79.3692,28.8561,179.1498,0,U,29495,999,7235,0,-.177E-5,0
BADR-4,2006-051A,2026-07-10T13:46:13.232928,1.00274119,.00048869,2.0622,80.8657,30.2695,58.3705,0,U,29526,999,5150,0,.163E-5,0
WILDBLUE-1,2006-054A,2026-07-10T11:21:57.887424,1.00270999,.00012814,2.8600,80.1920,30.3431,237.1464,0,U,29643,999,5402,0,-.42E-6,0
SKYNET 5A,2007-007B,2026-07-10T15:28:19.149312,1.00271063,.00036974,5.3582,73.4546,38.8059,143.6004,0,U,30794,999,7093,0,-.267E-5,0
ANIK F3,2007-009A,2026-07-10T15:10:20.797824,1.00271845,.00025006,1.2552,83.5722,34.9568,278.8950,0,U,31102,999,4679,0,.7E-7,0
ASTRA 1L,2007-016A,2026-07-10T11:46:18.055200,1.00270731,.00052679,1.3790,81.3872,31.8419,327.2485,0,U,31306,999,4521,0,-.176E-5,0
GALAXY 17 (G-17),2007-016B,2026-07-10T13:12:01.512000,1.00271070,.00035812,3.0278,79.6059,31.4253,290.4239,0,U,31307,999,7003,0,-.199E-5,0
INTELSAT 11 (IS-11),2007-044B,2026-07-10T08:34:35.007168,0.99050526,.00039855,3.6226,78.3886,99.1520,263.2343,0,U,32253,999,6868,0,-.32E-6,0
WGS F1 (USA 195),2007-046A,2026-07-10T11:41:33.509760,1.00264602,.00003876,0.0139,74.7869,179.1739,167.3497,0,U,32258,999,5256,0,-.258E-5,0
SKYNET 5B,2007-056B,2026-07-09T22:19:36.584256,1.00272198,.00037426,5.3082,73.2334,36.2150,178.3837,0,U,32294,999,6842,0,.147E-5,0
ASTRA 4A,2007-057A,2026-07-10T13:37:44.046624,1.00269863,.00022491,0.0359,295.3335,179.4478,22.9403,0,U,32299,999,5188,0,.42E-6,0
HORIZONS-2,2007-063B,2026-07-10T13:15:16.200576,1.00270785,.00035911,2.6594,80.3399,17.2436,315.9146,0,U,32388,999,6804,0,-.246E-5,0
THURAYA-3,2008-001A,2026-07-10T14:39:38.471616,1.00270820,.00021554,6.0273,35.8126,75.1048,101.2190,0,U,32404,999,6772,0,.14E-6,0
THOR 5,2008-006A,2026-07-10T07:33:38.628288,1.00270431,.00023192,0.0526,243.8155,233.9505,283.1311,0,U,32487,999,6754,0,.1E-7,0
AMC-14,2008-011A,2026-07-10T00:32:21.566112,1.00420339,.00399082,24.0366,20.2441,8.1782,343.6292,0,U,32708,999,6839,0,-.155E-5,0
DIRECTV 11,2008-013A,2026-07-10T08:27:57.620736,1.00270623,.00002476,0.0387,212.3876,324.0727,139.6181,0,U,32729,999,4582,0,-.115E-5,0
ICO G1,2008-016A,2026-07-10T13:09:54.215424,1.00272994,.00022319,5.5275,36.0565,64.1734,292.8591,0,U,32763,999,6677,0,-.167E-5,0
VINASAT-1,2008-018A,2026-07-09T21:07:25.089600,1.00270530,.00014256,0.0415,282.6531,207.7626,246.1923,0,U,32767,999,6681,0,-.316E-5,0
STAR ONE C2,2008-018B,2026-07-10T07:15:38.636064,1.00269516,.00027552,1.2965,82.2450,45.7758,204.1020,0,U,32768,999,6688,0,-.267E-5,0
AMOS-3,2008-022A,2026-07-10T13:52:27.635232,1.00486711,.00029295,0.5127,85.8786,82.9550,24.4415,0,U,32794,999,8257,0,.45E-6,0
GALAXY 18 (G-18),2008-024A,2026-07-10T15:13:18.719616,1.00270137,.00027698,0.0252,38.3327,86.0431,269.5100,0,U,32951,999,4608,0,0,0
ZHONGXING-9,2008-028A,2026-07-10T10:37:21.396864,1.00271153,.00034261,0.8246,85.0821,16.8215,78.1810,0,U,33051,999,6627,0,-.239E-5,0
SKYNET 5C,2008-030A,2026-07-10T00:14:56.614272,1.00269696,.00042178,3.8442,76.7691,43.9043,153.1775,0,U,33055,999,6618,0,-.132E-5,0
TURKSAT 3A,2008-030B,2026-07-10T13:48:20.530368,1.00274020,.00046523,0.0219,64.2156,29.4301,83.9526,0,U,33056,999,5259,0,.156E-5,0
ECHOSTAR 11,2008-035A,2026-07-10T13:05:02.180832,1.00270489,.00022691,1.0626,83.9104,12.5437,278.4766,0,U,33207,999,5144,0,-.49E-6,0
SUPERBIRD-C2,2008-038A,2026-07-10T14:15:06.614784,1.00270997,.00061412,2.4183,80.9728,37.7872,159.5381,0,U,33274,999,10596,0,-.299E-5,0
INMARSAT 4-F3,2008-039A,2026-07-10T11:25:42.529152,1.00271365,.00027601,4.3133,31.6966,82.0299,248.0904,0,U,33278,999,4677,0,-.134E-5,0
NIMIQ 4,2008-044A,2026-07-10T13:12:53.928288,1.00266062,.00021701,0.0320,61.8065,75.0583,267.8446,0,U,33373,999,6521,0,0,0
GALAXY 19 (G-19),2008-045A,2026-07-10T13:08:39.334272,1.00272388,.00023527,0.0543,249.8758,227.7725,270.9740,0,U,33376,999,6513,0,-.129E-5,0
