JCSAT-3A                
1 29272U 06033A   26191.59226656 -.00000335  00000+0  00000+0 0  9994
2 29272   0.0224 308.4736 0002488 178.2167 143.0361  1.00270222 47978
KOREASAT 5 (MUGUNGWHA 5)
1 29349U 06034A   26191.58931988 -.00000350  00000+0  00000+0 0  9997
2 29349   1.8424  82.7007 0001666  76.7614  94.2604  1.00272389 41554
DIRECTV 9S              
1 29494U 06043A   26191.62591616 -.00000106  00000+0  00000+0 0  9992
2 29494   2.4783  80.6201 0005014  31.8882 300.1670  1.00270968 51614
OPTUS D1                
1 29495U 06043B   26191.57475331 -.00000177  00000+0  00000+0 0  9990
2 29495   3.0920  79.3692 0003345  28.8561 179.1498  1.00270728 72359
BADR-4                  
1 29526U 06051A   26191.57376427  .00000163  00000+0  00000+0 0  9994
2 29526   2.0622  80.8657 0004886  30.2695  58.3705  1.00274119 51507
WILDBLUE-1              
1 29643U 06054A   26191.47358666 -.00000042  00000+0  00000+0 0  9998
2 29643   2.8600  80.1920 0001281  30.3431 237.1464  1.00270999 54023
SKYNET 5A               
1 30794U 07007B   26191.64466608 -.00000267  00000+0  00000+0 0  9990
2 30794   5.3582  73.4546 0003697  38.8059 143.6004  1.00271063 70932
ANIK F3                 
1 31102U 07009A   26191.63218516  .00000007  00000+0  00000+0 0  9999
2 31102   1.2552  83.5722 0002500  34.9568 278.8950  1.00271845 46796
ASTRA 1L                
1 31306U 07016A   26191.49048675 -.00000176  00000+0  00000+0 0  9992
2 31306   1.3790  81.3872 0005267  31.8419 327.2485  1.00270731 45214
GALAXY 17 (G-17)        
1 31307U 07016B   26191.55001750 -.00000199  00000+0  00000+0 0  9998
2 31307   3.0278  79.6059 0003581  31.4253 290.4239  1.00271070 70034
INTELSAT 11 (IS-11)     
1 32253U 07044B   26191.35734962 -.00000032  00000+0  00000+0 0  9992
2 32253   3.6226  78.3886 0003985  99.1520 263.2343  0.99050526 68684
WGS F1 (USA 195)        
1 32258U 07046A   26191.48719340 -.00000258  00000+0  00000+0 0  9996
2 32258   0.0139  74.7869 0000387 179.1739 167.3497  1.00264602 52567
SKYNET 5B               
1 32294U 07056B   26190.93028454  .00000147  00000+0  00000+0 0  9991
2 32294   5.3082  73.2334 0003742  36.2150 178.3837  1.00272198 68422
ASTRA 4A                
1 32299U 07057A   26191.56787091  .00000042  00000+0  00000+0 0  9990
2 32299   0.0359 295.3335 0002249 179.4478  22.9403  1.00269863 51888
HORIZONS-2              
1 32388U 07063B   26191.55227084 -.00000246  00000+0  00000+0 0  9993
2 32388   2.6594  80.3399 0003591  17.2436 315.9146  1.00270785 68042
THURAYA-3               
1 32404U 08001A   26191.61086194  .00000014  00000+0  00000+0 0  9999
2 32404   6.0273  35.8126 0002155  75.1048 101.2190  1.00270820 67722
THOR 5                  
1 32487U 08006A   26191.31503042  .00000001  00000+0  00000+0 0  9994
2 32487   0.0526 243.8155 0002319 233.9505 283.1311  1.00270431 67548
AMC-14                  
1 32708U 08011A   26191.02247183 -.00000155  00000+0  00000+0 0  9996
2 32708  24.0366  20.2441 0039908   8.1782 343.6292  1.00420339 68398
DIRECTV 11              
1 32729U 08013A   26191.35275024 -.00000115  00000+0  00000+0 0  9998
2 32729   0.0387 212.3876 0000247 324.0727 139.6181  1.00270623 45829
ICO G1                  
1 32763U 08016A   26191.54854416 -.00000167  00000+0  00000+0 0  9995
2 32763   5.5275  36.0565 0002231  64.1734 292.8591  1.00272994 66771
VINASAT-1               
1 32767U 08018A   26190.88015150 -.00000316  00000+0  00000+0 0  9997
2 32767   0.0415 282.6531 0001425 207.7626 246.1923  1.00270530 66812
STAR ONE C2             
1 32768U 08018B   26191.30253051 -.00000267  00000+0  00000+0 0  9995
2 32768   1.2965  82.2450 0002755  45.7758 204.1020  1.00269516 66884
AMOS-3                  
1 32794U 08022A   26191.57809763  .00000045  00000+0  00000+0 0  9998
2 32794   0.5127  85.8786 0002929  82.9550  24.4415  1.00486711 82575
GALAXY 18 (G-18)        
1 32951U 08024A   26191.63424444  .00000000  00000+0  00000+0 0  9992
2 32951   0.0252  38.3327 0002769  86.0431 269.5100  1.00270137 46085
ZHONGXING-9             
1 33051U 08028A   26191.44260876 -.00000239  00000+0  00000+0 0  9999
2 33051   0.8246  85.0821 0003426  16.8215  78.1810  1.00271153 66272
SKYNET 5C               
1 33055U 08030A   26191.01037748 -.00000132  00000+0  00000+0 0  9991
2 33055   3.8442  76.7691 0004217  43.9043 153.1775  1.00269696 66181
TURKSAT 3A              
1 33056U 08030B   26191.57523762  .00000156  00000+0  00000+0 0  9994
2 33056   0.0219  64.2156 0004652  29.4301  83.9526  1.00274020 52591
ECHOSTAR 11             
1 33207U 08035A   26191.54516413 -.00000049  00000+0  00000+0 0  9991
2 33207   1.0626  83.9104 0002269  12.5437 278.4766  1.00270489 51443
SUPERBIRD-C2            
1 33274U 08038A   26191.59382656 -.00000299  00000+0  00000+0 0  9990
2 33274   2.4183  80.9728 0006141  37.7872 159.5381  1.00270997105967
INMARSAT 4-F3           
1 33278U 08039A   26191.47618668 -.00000134  00000+0  00000+0 0  9995
2 33278   4.3133  31.6966 0002760  82.0299 248.0904  1.00271365 46771
NIMIQ 4                 
1 33373U 08044A   26191.55062417  .00000000  00000+0  00000+0 0  9992
2 33373   0.0320  61.8065 0002170  75.0583 267.8446  1.00266062 65214
GALAXY 19 (G-19)        
1 33376U 08045A   26191.54767748 -.00000129  00000+0  00000+0 0  9997
2 33376   0.0543 249.8758 0002352 227.7725 270.9740  1.00272388 65138
